[{"OBJECT_NAME":"STARLINK-3527","OBJECT_ID":"2022-016N","EPOCH":"2026-03-09T22:42:40.124736","MEAN_MOTION":15.0895963,"ECCENTRICITY":0.00012129,"INCLINATION":53.2166,"RA_OF_ASC_NODE":317.9674,"ARG_OF_PERICENTER":98.5905,"MEAN_ANOMALY":261.5225,"EPHEMERIS_TYPE":0,"CLASSIFICATION_TYPE":"U","NORAD_CAT_ID":51726,"ELEMENT_SET_NO":999,"REV_AT_EPOCH":22360,"BSTAR":0.00054417406,"MEAN_MOTION_DOT":8.411e-5,"MEAN_MOTION_DDOT":0},{"OBJECT_NAME":"NANOFF A","OBJECT_ID":"2023-185T","EPOCH":"2026-03-09T23:34:34.415328","MEAN_MOTION":15.11542977,"ECCENTRICITY":0.00086783,"INCLINATION":97.5359,"RA_OF_ASC_NODE":137.8345,"ARG_OF_PERICENTER":292.8968,"MEAN_ANOMALY":67.1346,"EPHEMERIS_TYPE":0,"CLASSIFICATION_TYPE":"U","NORAD_CAT_ID":58810,"ELEMENT_SET_NO":999,"REV_AT_EPOCH":11805,"BSTAR":0.00027314844,"MEAN_MOTION_DOT":4.57e-5,"MEAN_MOTION_DDOT":0}]
